BEIDOU-2 IGSO-1 (C06)   
1 36828U 10036A   26193.88960631 -.00000103  00000+0  00000+0 0  9992
2 36828  54.3059 162.7278 0059161 225.3005 330.1612  1.00264571 58350
BEIDOU-2 G4 (C04)       
1 37210U 10057A   26195.09170696 -.00000122  00000+0  00000+0 0  9991
2 37210   3.7107  68.7710 0005715 184.4248 231.7012  1.00269789 57562
BEIDOU-2 IGSO-2 (C07)   
1 37256U 10068A   26194.65354440 -.00000188  00000+0  00000+0 0  9997
2 37256  47.4995 271.5017 0056984 213.7588 149.8536  1.00273377 57066
BEIDOU-2 IGSO-3 (C08)   
1 37384U 11013A   26193.51258941 -.00000165  00000+0  00000+0 0  9998
2 37384  62.4426  39.9128 0035266 183.3051 358.3524  1.00260977 55918
BEIDOU-2 IGSO-4 (C09)   
1 37763U 11038A   26193.91136250 -.00000017  00000+0  00000+0 0  9994
2 37763  54.6038 165.4445 0160342 231.4539 316.2369  1.00279714 54905
BEIDOU-2 IGSO-5 (C10)   
1 37948U 11073A   26183.72937883 -.00000128  00000+0  00000+0 0  9990
2 37948  47.6496 271.3544 0114527 222.0502 141.5350  1.00270596 53296
BEIDOU-2 G5 (C05)       
1 38091U 12008A   26195.14297506  .00000048  00000+0  00000+0 0  9999
2 38091   3.6378  69.5207 0007321 268.8070  63.8181  1.00269886 52636
BEIDOU-2 M3 (C11)       
1 38250U 12018A   26194.49964644 -.00000069  00000+0  00000+0 0  9992
2 38250  55.7337 303.9888 0020987 272.3154  87.4648  1.86229839 96436
BEIDOU-2 M4 (C12)       
1 38251U 12018B   26194.43198869 -.00000068  00000+0  00000+0 0  9994
2 38251  55.6338 303.2030 0012087 272.4400  87.4432  1.86229496 96436
BEIDOU-2 M6 (C14)       
1 38775U 12050B   26193.06769869 -.00000042  00000+0  00000+0 0  9995
2 38775  56.5659  62.0719 0012986   1.2706 358.8013  1.86230839 93779
BEIDOU-2 G6 (C02)       
1 38953U 12059A   26195.07671355 -.00000185  00000+0  00000+0 0  9995
2 38953   4.4864  73.2265 0008761 327.1522   3.1566  1.00273967 50174
BEIDOU-3S IGSO-1S (C31) 
1 40549U 15019A   26183.80025122 -.00000190  00000+0  00000+0 0  9997
2 40549  49.1798 295.2769 0076860 219.1125 144.2493  1.00680073 41232
BEIDOU-3S M2S (C58)     
1 40748U 15037A   26192.48610376 -.00000066  00000+0  00000+0 0  9995
2 40748  54.8478 301.2103 0009320 257.1356 102.7802  1.86232157 74572
BEIDOU-3S M1S (C57)     
1 40749U 15037B   26194.30119624 -.00000065  00000+0  00000+0 0  9998
2 40749  54.8425 301.1343 0002802  63.5096 296.5438  1.86254753 74616
BEIDOU-3S IGSO-2S (C56) 
1 40938U 15053A   26195.14973509 -.00000088  00000+0  00000+0 0  9994
2 40938  49.1804 258.4600 0066236 193.0758 347.8347  1.00252718 39625
BEIDOU-2 IGSO-6 (C13)   
1 41434U 16021A   26177.11016981 -.00000145  00000+0  00000+0 0  9995
2 41434  60.2385  37.9495 0057558 231.0163 137.2672  1.00258926 37578
BEIDOU-2 G7 (C03)       
1 41586U 16037A   26195.01060949 -.00000361  00000+0  00000+0 0  9992
2 41586   1.7834  69.4825 0005953 359.4152 337.3345  1.00274078  7154
BEIDOU-3 M1 (C19)       
1 43001U 17069A   26194.44391350 -.00000038  00000+0  00000+0 0  9992
2 43001  56.7146  62.2203 0009289 328.5596  31.4579  1.86230851 59096
BEIDOU-3 M2 (C20)       
1 43002U 17069B   26191.16097920 -.00000046  00000+0  00000+0 0  9994
2 43002  56.7107  62.3639 0008254 357.9796   2.0799  1.86230592 59020
BEIDOU-3 M7 (C27)       
1 43107U 18003A   26194.12464471 -.00000066  00000+0  00000+0 0  9999
2 43107  54.3034 301.4109 0004425  99.0541 261.0198  1.86228081 57833
BEIDOU-3 M8 (C28)       
1 43108U 18003B   26195.14292031 -.00000067  00000+0  00000+0 0  9995
2 43108  54.2952 301.3565 0003055 257.2300 102.7635  1.86230956 57860
BEIDOU-3 M4 (C22)       
1 43207U 18018A   26194.51220679 -.00000038  00000+0  00000+0 0  9998
2 43207  56.6741  62.2812 0007447  28.6419 331.4720  1.86230754 57233
BEIDOU-3 M3 (C21)       
1 43208U 18018B   26194.04174515 -.00000039  00000+0  00000+0 0  9995
2 43208  56.6731  62.3007 0007681 347.0461  13.0059  1.86230649 57225
BEIDOU-3 M9 (C29)       
1 43245U 18029A   26194.25971373 -.00000062  00000+0  00000+0 0  9994
2 43245  54.1685 299.0363 0001260 187.3778 172.6488  1.86227903 56387
BEIDOU-3 M10 (C30)      
1 43246U 18029B   26194.73089561 -.00000062  00000+0  00000+0 0  9997
2 43246  54.1659 299.0468 0003296  37.0559 322.9969  1.86229199 56376
BEIDOU-2 IGSO-7 (C16)   
1 43539U 18057A   26182.89122331 -.00000033  00000+0  00000+0 0  9998
2 43539  55.1981 162.9292 0104946 237.8611 308.6338  1.00246939 29273
BEIDOU-3 M5 (C23)       
1 43581U 18062A   26193.34395808  .00000077  00000+0  00000+0 0  9991
2 43581  54.0867 181.4489 0005696 292.2984  67.6347  1.86228464 54104
BEIDOU-3 M6 (C24)       
1 43582U 18062B   26194.28144978  .00000061  00000+0  00000+0 0  9999
2 43582  54.0859 181.4064 0005201   9.6286 350.3672  1.86227719 54129
BEIDOU-3 M12 (C26)      
1 43602U 18067A   26194.21988417  .00000060  00000+0  00000+0 0  9993
2 43602  54.1816 180.1576 0007895  30.2072 329.8221  1.86227609 53605
BEIDOU-3 M11 (C25)      
1 43603U 18067B   26194.35501981  .00000058  00000+0  00000+0 0  9993
2 43603  54.1790 180.1167 0004598  13.0862 346.9085  1.86227041 53637
BEIDOU-3 M13 (C32)      
1 43622U 18072A   26194.84670723 -.00000039  00000+0  00000+0 0  9995
2 43622  56.6475  61.7808 0006236 333.7731  26.2691  1.86231187 53153
BEIDOU-3 M14 (C33)      
1 43623U 18072B   26194.71213374 -.00000039  00000+0  00000+0 0  9997
2 43623  56.6494  61.7795 0005535  10.9871 349.0986  1.86231255 53148
BEIDOU-3 M16 (C35)      
1 43647U 18078A   26194.33012617 -.00000062  00000+0  00000+0 0  9990
2 43647  54.0645 299.0691 0006650  39.9150 320.1624  1.86232180 52646
BEIDOU-3 M15 (C34)      
1 43648U 18078B   26194.45939360 -.00000062  00000+0  00000+0 0  9997
2 43648  54.0601 299.0647 0003561  57.9247 302.1389  1.86232304 52663
BEIDOU-3 G1 (C59)       
1 43683U 18085A   26195.16299515 -.00000118  00000+0  00000+0 0  9996
2 43683   2.9334  96.6430 0008025 356.2152  57.8074  1.00272522 28332
BEIDOU-3 M17 (C36)      
1 43706U 18093A   26194.90441551  .00000052  00000+0  00000+0 0  9997
2 43706  54.1701 181.3899 0010122 294.1465 255.6116  1.86228269 52036
BEIDOU-3 M18 (C37)      
1 43707U 18093B   26195.02183770  .00000051  00000+0  00000+0 0  9997
2 43707  54.1709 181.3784 0008081 322.4922  37.4315  1.86226640 52030
BEIDOU-3 IGSO-1 (C38)   
1 44204U 19023A   26194.49395858 -.00000204  00000+0  00000+0 0  9997
2 44204  58.7323  37.3789 0025734 224.1077 326.8166  1.00283496  7478
BEIDOU-2 G8 (C01)       
1 44231U 19027A   26195.23126285 -.00000255  00000+0  00000+0 0  9996
2 44231   1.7235  74.4902 0009723 282.2131 163.1708  1.00271951 26358
BEIDOU-3 IGSO-2 (C39)   
1 44337U 19035A   26194.79845214 -.00000132  00000+0  00000+0 0  9996
2 44337  55.2501 158.6293 0039599 216.6325 322.4489  1.00258053 25930
BEIDOU-3 M24 (C46)      
1 44542U 19061A   26195.09011616  .00000051  00000+0  00000+0 0  9997
2 44542  54.3974 181.8206 0008605 359.4384   0.5411  1.86229166 46297
BEIDOU-3 M23 (C45)      
1 44543U 19061B   26194.41507322  .00000060  00000+0  00000+0 0  9997
2 44543  54.3959 181.8118 0005907 339.8983 198.9299  1.86227321 46288
BEIDOU-3 M22 (C44)      
1 44793U 19078A   26194.39343167 -.00000062  00000+0  00000+0 0  9997
2 44793  53.9106 298.9058 0005750  50.3045 309.7753  1.86227300 45134
BEIDOU-3 M21 (C43)      
1 44794U 19078B   26193.45936353 -.00000062  00000+0  00000+0 0  9999
2 44794  53.8852 298.8992 0003702  52.5088 307.5509  1.86227618 45120
BEIDOU-3 M19 (C41)      
1 44864U 19090A   26195.04782847 -.00000039  00000+0  00000+0 0  9999
2 44864  56.5824  61.9035 0016858 297.6871 244.8792  1.86231152 44733
BEIDOU-3 M20 (C42)      
1 44865U 19090B   26194.37201139 -.00000039  00000+0  00000+0 0  9995
2 44865  56.5830  61.9605 0014540 312.7537 226.2950  1.86231167 44701
BEIDOU-3 G2 (C60)       
1 45344U 20017A   26195.14713507 -.00000148  00000+0  00000+0 0  9993
2 45344   2.9166  47.7078 0001956  61.3548 315.9477  1.00269110 23536
BEIDOU-3 G3 (C61)       
1 45807U 20040A   26194.79671881 -.00000360  00000+0  00000+0 0  9997
2 45807   2.5103  67.5175 0001680 327.4244 293.9568  1.00264431 22332
BEIDOU-3 G4 (C62)       
1 56564U 23066A   26195.23030950 -.00000287  00000+0  00000+0 0  9994
2 56564   0.4614 338.6274 0004877 187.7470 348.6909  1.00272748 11660
BEIDOU-3 M28 (C50)      
1 58654U 23207A   26194.07330709 -.00000042  00000+0  00000+0 0  9998
2 58654  55.7756  61.4299 0002479   3.8354 356.2375  1.86229628 17329
BEIDOU-3 M26 (C48)      
1 58655U 23207B   26194.94472111 -.00000041  00000+0  00000+0 0  9998
2 58655  55.7788  61.3871 0002020 324.6989  35.3608  1.86229626 17322
BEIDOU-3 M25 (C47)      
1 61186U 24168B   26194.32238303 -.00000066  00000+0  00000+0 0  9990
2 61186  54.4484 301.3340 0003286 291.8213 128.4471  1.86229790 12275
BEIDOU-3 M27 (C49)      
1 61187U 24168C   26194.58014972 -.00000066  00000+0  00000+0 0  9993
2 61187  54.4435 301.3077 0000925  48.6459 319.4753  1.86229853  9750
